ALOS-4 (DAICHI-4)       
1 60182U 24123A   24220.12473743  .00004023  00000+0  54523-3 0  9990
2 60182  97.9220 316.0570 0001567  98.4559 261.6830 14.79471597  5475
